{"type": "FeatureCollection", "features": [{"type": "Feature", "properties": {"norad_id": 28890, "name": "BEIJING 1", "group": "dmc", "lat": 69.88709215354989, "lon": -28.673097358014353, "alt_km": 664.4146402909782, "timestamp": "2025-12-26T09:30:53.294720+00:00", "meta": {"OBJECT_NAME": "BEIJING 1", "OBJECT_ID": "2005-043A", "EPOCH": "2025-12-25T23:10:34.351968", "MEAN_MOTION": 14.6337783, "ECCENTRICITY": 0.00158315, "INCLINATION": 98.2664, "RA_OF_ASC_NODE": 127.5046, "ARG_OF_PERICENTER": 102.3973, "MEAN_ANOMALY": 257.9002, "EPHEMERIS_TYPE": 0, "CLASSIFICATION_TYPE": "U", "NORAD_CAT_ID": 28890, "ELEMENT_SET_NO": 999, "REV_AT_EPOCH": 7531, "BSTAR": 9.0116198e-05, "MEAN_MOTION_DOT": 4.18e-06, "MEAN_MOTION_DDOT": 0}, "tle": {"line1": "1 28890U 05043A   25359.96567537  .00000418  00000+0  90116-4 0  9994", "line2": "2 28890  98.2664 127.5046 0015831 102.3973 257.9002 14.63377830 75315"}}, "geometry": {"type": "Point", "coordinates": [-28.673097358014353, 69.88709215354989]}}, {"type": "Feature", "properties": {"norad_id": 33320, "name": "HUANJING 1A (HJ-1A)", "group": "dmc", "lat": 38.68127054086757, "lon": -18.056597104160986, "alt_km": 606.7501245658932, "timestamp": "2025-12-26T09:30:53.294763+00:00", "meta": {"OBJECT_NAME": "HUANJING 1A (HJ-1A)", "OBJECT_ID": "2008-041A", "EPOCH": "2025-12-26T04:28:59.352384", "MEAN_MOTION": 14.83435533, "ECCENTRICITY": 0.0019119, "INCLINATION": 97.6552, "RA_OF_ASC_NODE": 347.9242, "ARG_OF_PERICENTER": 351.3642, "MEAN_ANOMALY": 8.724, "EPHEMERIS_TYPE": 0, "CLASSIFICATION_TYPE": "U", "NORAD_CAT_ID": 33320, "ELEMENT_SET_NO": 999, "REV_AT_EPOCH": 93275, "BSTAR": 0.00023251, "MEAN_MOTION_DOT": 1.864e-05, "MEAN_MOTION_DDOT": 0}, "tle": {"line1": "1 33320U 08041A   25360.18679806  .00001864  00000+0  23251-3 0  9999", "line2": "2 33320  97.6552 347.9242 0019119 351.3642   8.7240 14.83435533932759"}}, "geometry": {"type": "Point", "coordinates": [-18.056597104160986, 38.68127054086757]}}, {"type": "Feature", "properties": {"norad_id": 33321, "name": "HUANJING 1B (HJ-1B)", "group": "dmc", "lat": -51.10847113176658, "lon": 162.2062455010398, "alt_km": 652.1667535208808, "timestamp": "2025-12-26T09:30:53.294780+00:00", "meta": {"OBJECT_NAME": "HUANJING 1B (HJ-1B)", "OBJECT_ID": "2008-041B", "EPOCH": "2025-12-26T05:14:04.570080", "MEAN_MOTION": 14.82859169, "ECCENTRICITY": 0.0037683, "INCLINATION": 97.641, "RA_OF_ASC_NODE": 351.6158, "ARG_OF_PERICENTER": 33.0581, "MEAN_ANOMALY": 327.2977, "EPHEMERIS_TYPE": 0, "CLASSIFICATION_TYPE": "U", "NORAD_CAT_ID": 33321, "ELEMENT_SET_NO": 999, "REV_AT_EPOCH": 93277, "BSTAR": 0.00027536, "MEAN_MOTION_DOT": 2.206e-05, "MEAN_MOTION_DDOT": 0}, "tle": {"line1": "1 33321U 08041B   25360.21810845  .00002206  00000+0  27536-3 0  9995", "line2": "2 33321  97.6410 351.6158 0037683  33.0581 327.2977 14.82859169932775"}}, "geometry": {"type": "Point", "coordinates": [162.2062455010398, -51.10847113176658]}}, {"type": "Feature", "properties": {"norad_id": 33446, "name": "YAOGAN-4", "group": "dmc", "lat": 42.46905682709519, "lon": 117.68345643028951, "alt_km": 624.0349399411425, "timestamp": "2025-12-26T09:30:53.294793+00:00", "meta": {"OBJECT_NAME": "YAOGAN-4", "OBJECT_ID": "2008-061A", "EPOCH": "2025-12-25T18:19:17.173344", "MEAN_MOTION": 14.8271976, "ECCENTRICITY": 0.00129661, "INCLINATION": 97.9198, "RA_OF_ASC_NODE": 289.7359, "ARG_OF_PERICENTER": 277.0684, "MEAN_ANOMALY": 82.9055, "EPHEMERIS_TYPE": 0, "CLASSIFICATION_TYPE": "U", "NORAD_CAT_ID": 33446, "ELEMENT_SET_NO": 999, "REV_AT_EPOCH": 91996, "BSTAR": 0.00018510552, "MEAN_MOTION_DOT": 1.442e-05, "MEAN_MOTION_DDOT": 0}, "tle": {"line1": "1 33446U 08061A   25359.76339321  .00001442  00000+0  18511-3 0  9992", "line2": "2 33446  97.9198 289.7359 0012966 277.0684  82.9055 14.82719760919964"}}, "geometry": {"type": "Point", "coordinates": [117.68345643028951, 42.46905682709519]}}, {"type": "Feature", "properties": {"norad_id": 35681, "name": "DEIMOS-1", "group": "dmc", "lat": -65.53941638363393, "lon": -36.97517924828601, "alt_km": 654.1732074879219, "timestamp": "2025-12-26T09:30:53.294805+00:00", "meta": {"OBJECT_NAME": "DEIMOS-1", "OBJECT_ID": "2009-041A", "EPOCH": "2025-12-26T05:08:36.905856", "MEAN_MOTION": 14.74972371, "ECCENTRICITY": 0.0002439, "INCLINATION": 97.7158, "RA_OF_ASC_NODE": 160.1911, "ARG_OF_PERICENTER": 59.0529, "MEAN_ANOMALY": 301.092, "EPHEMERIS_TYPE": 0, "CLASSIFICATION_TYPE": "U", "NORAD_CAT_ID": 35681, "ELEMENT_SET_NO": 999, "REV_AT_EPOCH": 88138, "BSTAR": 0.00012759, "MEAN_MOTION_DOT": 8.1e-06, "MEAN_MOTION_DDOT": 0}, "tle": {"line1": "1 35681U 09041A   25360.21431604  .00000810  00000+0  12759-3 0  9999", "line2": "2 35681  97.7158 160.1911 0002439  59.0529 301.0920 14.74972371881387"}}, "geometry": {"type": "Point", "coordinates": [-36.97517924828601, -65.53941638363393]}}, {"type": "Feature", "properties": {"norad_id": 35683, "name": "UK-DMC 2", "group": "dmc", "lat": -63.97374844288444, "lon": 151.34233233316695, "alt_km": 651.3311209753765, "timestamp": "2025-12-26T09:30:53.294817+00:00", "meta": {"OBJECT_NAME": "UK-DMC 2", "OBJECT_ID": "2009-041C", "EPOCH": "2025-12-26T04:55:38.318304", "MEAN_MOTION": 14.756493, "ECCENTRICITY": 0.0001588, "INCLINATION": 97.8574, "RA_OF_ASC_NODE": 134.7286, "ARG_OF_PERICENTER": 92.6827, "MEAN_ANOMALY": 267.4564, "EPHEMERIS_TYPE": 0, "CLASSIFICATION_TYPE": "U", "NORAD_CAT_ID": 35683, "ELEMENT_SET_NO": 999, "REV_AT_EPOCH": 88105, "BSTAR": 0.00016158, "MEAN_MOTION_DOT": 1.054e-05, "MEAN_MOTION_DDOT": 0}, "tle": {"line1": "1 35683U 09041C   25360.20530461  .00001054  00000+0  16158-3 0  9999", "line2": "2 35683  97.8574 134.7286 0001588  92.6827 267.4564 14.75649300881059"}}, "geometry": {"type": "Point", "coordinates": [151.34233233316695, -63.97374844288444]}}, {"type": "Feature", "properties": {"norad_id": 40715, "name": "DMC3-FM1", "group": "dmc", "lat": 72.6453945492329, "lon": 72.62825682660026, "alt_km": 607.8209300002036, "timestamp": "2025-12-26T09:30:53.294829+00:00", "meta": {"OBJECT_NAME": "DMC3-FM1", "OBJECT_ID": "2015-032A", "EPOCH": "2025-12-26T04:11:27.435840", "MEAN_MOTION": 14.85461887, "ECCENTRICITY": 0.0004086, "INCLINATION": 97.6678, "RA_OF_ASC_NODE": 226.8771, "ARG_OF_PERICENTER": 264.7216, "MEAN_ANOMALY": 95.3533, "EPHEMERIS_TYPE": 0, "CLASSIFICATION_TYPE": "U", "NORAD_CAT_ID": 40715, "ELEMENT_SET_NO": 999, "REV_AT_EPOCH": 56422, "BSTAR": 9.1305e-05, "MEAN_MOTION_DOT": 7.36e-06, "MEAN_MOTION_DDOT": 0}, "tle": {"line1": "1 40715U 15032A   25360.17462310  .00000736  00000+0  91305-4 0  9995", "line2": "2 40715  97.6678 226.8771 0004086 264.7216  95.3533 14.85461887564220"}}, "geometry": {"type": "Point", "coordinates": [72.62825682660026, 72.6453945492329]}}, {"type": "Feature", "properties": {"norad_id": 40716, "name": "DMC3-FM2", "group": "dmc", "lat": -14.472364316927806, "lon": -129.46117976388533, "alt_km": 615.9878948757305, "timestamp": "2025-12-26T09:30:53.294840+00:00", "meta": {"OBJECT_NAME": "DMC3-FM2", "OBJECT_ID": "2015-032B", "EPOCH": "2025-12-26T03:06:49.658688", "MEAN_MOTION": 14.85465973, "ECCENTRICITY": 0.0004559, "INCLINATION": 97.6736, "RA_OF_ASC_NODE": 228.2875, "ARG_OF_PERICENTER": 271.6904, "MEAN_ANOMALY": 88.3789, "EPHEMERIS_TYPE": 0, "CLASSIFICATION_TYPE": "U", "NORAD_CAT_ID": 40716, "ELEMENT_SET_NO": 999, "REV_AT_EPOCH": 56421, "BSTAR": 0.00017472, "MEAN_MOTION_DOT": 1.456e-05, "MEAN_MOTION_DDOT": 0}, "tle": {"line1": "1 40716U 15032B   25360.12974142  .00001456  00000+0  17472-3 0  9994", "line2": "2 40716  97.6736 228.2875 0004559 271.6904  88.3789 14.85465973564217"}}, "geometry": {"type": "Point", "coordinates": [-129.46117976388533, -14.472364316927806]}}, {"type": "Feature", "properties": {"norad_id": 40717, "name": "DMC3-FM3", "group": "dmc", "lat": -48.71766908998947, "lon": 41.34644790941566, "alt_km": 617.0928446717671, "timestamp": "2025-12-26T09:30:53.294851+00:00", "meta": {"OBJECT_NAME": "DMC3-FM3", "OBJECT_ID": "2015-032C", "EPOCH": "2025-12-26T03:38:08.248704", "MEAN_MOTION": 14.85451907, "ECCENTRICITY": 0.0003853, "INCLINATION": 97.6792, "RA_OF_ASC_NODE": 229.9504, "ARG_OF_PERICENTER": 273.4773, "MEAN_ANOMALY": 86.6002, "EPHEMERIS_TYPE": 0, "CLASSIFICATION_TYPE": "U", "NORAD_CAT_ID": 40717, "ELEMENT_SET_NO": 999, "REV_AT_EPOCH": 56422, "BSTAR": 0.00015367, "MEAN_MOTION_DOT": 1.273e-05, "MEAN_MOTION_DDOT": 0}, "tle": {"line1": "1 40717U 15032C   25360.15148436  .00001273  00000+0  15367-3 0  9995", "line2": "2 40717  97.6792 229.9504 0003853 273.4773  86.6002 14.85451907564229"}}, "geometry": {"type": "Point", "coordinates": [41.34644790941566, -48.71766908998947]}}]}